[{"OBJECT_NAME":"STARLINK-3304","OBJECT_ID":"2021-125F","EPOCH":"2026-03-09T18:31:17.345856","MEAN_MOTION":15.08833438,"ECCENTRICITY":0.0001066,"INCLINATION":53.2164,"RA_OF_ASC_NODE":258.7523,"ARG_OF_PERICENTER":95.9728,"MEAN_ANOMALY":264.1386,"EPHEMERIS_TYPE":0,"CLASSIFICATION_TYPE":"U","NORAD_CAT_ID":50161,"ELEMENT_SET_NO":999,"REV_AT_EPOCH":23646,"BSTAR":9.17404e-5,"MEAN_MOTION_DOT":1.172e-5,"MEAN_MOTION_DDOT":0},{"OBJECT_NAME":"LEMUR-2-LANGER2SPACE","OBJECT_ID":"2025-061H","EPOCH":"2026-03-09T22:29:21.653952","MEAN_MOTION":15.13463796,"ECCENTRICITY":0.00153346,"INCLINATION":97.5541,"RA_OF_ASC_NODE":45.3892,"ARG_OF_PERICENTER":237.418,"MEAN_ANOMALY":122.5571,"EPHEMERIS_TYPE":0,"CLASSIFICATION_TYPE":"U","NORAD_CAT_ID":63358,"ELEMENT_SET_NO":999,"REV_AT_EPOCH":5260,"BSTAR":0.00035148431,"MEAN_MOTION_DOT":6.238e-5,"MEAN_MOTION_DDOT":0}]
